[{"OBJECT_NAME":"MONITOR-4 (RS57S)","OBJECT_ID":"2023-091S","EPOCH":"2026-03-09T23:02:36.101184","MEAN_MOTION":15.25833519,"ECCENTRICITY":0.00137053,"INCLINATION":97.5193,"RA_OF_ASC_NODE":131.7407,"ARG_OF_PERICENTER":91.587,"MEAN_ANOMALY":268.6938,"EPHEMERIS_TYPE":0,"CLASSIFICATION_TYPE":"U","NORAD_CAT_ID":57182,"ELEMENT_SET_NO":999,"REV_AT_EPOCH":14915,"BSTAR":0.00052093098,"MEAN_MOTION_DOT":0.000133,"MEAN_MOTION_DDOT":0},{"OBJECT_NAME":"STARLINK-36429","OBJECT_ID":"2026-003Y","EPOCH":"2026-03-09T10:46:58.070208","MEAN_MOTION":15.27610547,"ECCENTRICITY":9.64e-5,"INCLINATION":42.9966,"RA_OF_ASC_NODE":228.7174,"ARG_OF_PERICENTER":227.1582,"MEAN_ANOMALY":132.9189,"EPHEMERIS_TYPE":0,"CLASSIFICATION_TYPE":"U","NORAD_CAT_ID":67356,"ELEMENT_SET_NO":999,"REV_AT_EPOCH":878,"BSTAR":0.0017328812,"MEAN_MOTION_DOT":0.00047777,"MEAN_MOTION_DDOT":0}]
